78P/Gehrels,e,6.2569,210.5311,192.6858,3.735556,0.1365121,0.46317592,247.6580,03/24.0/2024,2000,g  5.5,8.0
# From MPC 94675
79P/du Toit-Hartley,e,3.1488,281.7714,280.5265,2.943833,0.1951346,0.61920763,34.2752,03/24.0/2024,2000,g 16.0,4.0
# From MPEC 2023-RF3
80P/Peters-Hartley,e,29.9237,259.7837,339.2741,4.022785,0.1221557,0.59823538,57.5629,03/24.0/2024,2000,g  9.0,8.0
# From MPEC 2024-D33
81P/Wild,e,3.2368,136.0937,41.5902,3.452857,0.1536159,0.53726744,71.3427,03/24.0/2024,2000,g  7.0,6.0
# From MPC133426
82P/Gehrels,e,1.1292,239.2345,226.4112,4.132303,0.1173318,0.12243878,246.5355,03/24.0/2024,2000,g 15.0,4.0
# From NK 932
83D/Russell,e,17.8261,226.3058,334.4330,3.843956,0.1307785,0.44135955,135.5568,03/24.0/2024,2000,g  9.0,4.0
# From MPEC 2020-FB5
84P/Giclas,e,7.5512,108.1612,281.6481,3.550093,0.1473481,0.51603157,204.5326,03/24.0/2024,2000,g  9.5,8.0
# From unp
85D/Boethin,e,4.1742,65.2841,333.0711,5.044117,0.0870014,0.77629622,115.9463,03/24.0/2024,2000,g  6.5,8.0
# From MPEC 2022-YB4
86P/Wild,e,15.5144,72.1202,180.5004,3.622392,0.1429588,0.37061607,110.6866,03/24.0/2024,2000,g 11.0,6.0
# From MPEC 2020-SI8
87P/Bus,e,2.7446,187.0258,50.9706,4.277943,0.1113914,0.23980413,159.0001,03/24.0/2024,2000,g  7.2,10.0
# From MPEC 2024-C04
88P/Howell,e,4.3820,56.6662,235.9220,3.107186,0.1799506,0.56322955,229.5556,03/24.0/2024,2000,g 11.0,6.0
# From MPEC 2023-J29
89P/Russell,e,12.0721,41.3457,250.4012,3.751724,0.1356306,0.40778072,359.6465,03/24.0/2024,2000,g 11.5,6.0
# From MPEC 2022-K19
90P/Gehrels,e,9.6481,13.2148,29.1111,6.052053,0.0661988,0.51112255,163.2169,03/24.0/2024,2000,g  8.5,6.0
# From MPEC 2023-VM5
91P/Russell,e,16.1041,243.0639,359.3162,3.928858,0.1265624,0.32379939,157.9311,03/24.0/2024,2000,g  7.5,6.0
# From MPEC 2014-J58
92P/Sanguin,e,19.4946,181.3772,163.8015,5.342878,0.0798070,0.66052911,263.6034,03/24.0/2024,2000,g 12.0,6.0
# From NK 2707
93P/Lovas,e,12.2050,339.5824,74.9450,4.377227,0.1076231,0.61399243,277.1504,03/24.0/2024,2000,g  9.0,4.0
# From MPEC 2024-D33
94P/Russell,e,6.1879,70.8519,92.4039,3.510595,0.1498418,0.36567859,46.1443,03/24.0/2024,2000,g  9.0,6.0
# From MPC 75717
95P/Chiron,e,6.9226,209.1991,339.4071,13.71009,0.0194153,0.37682015,200.8283,03/24.0/2024,2000,g  6.5,2.0
# From MPEC 2023-N01
96P/Machholz,e,57.5443,93.9549,14.7419,3.030823,0.1867941,0.96162546,78.0598,03/24.0/2024,2000,g 13.0,4.8
# From MPC106348
96P-B/Machholz,e,57.5041,14.7180,93.9533,3.030122,0.1868589,0.96163357,78.0883,03/24.0/2024,2000,g 13.0,4.8
# From MPC103849
96P-C/Machholz,e,58.5311,94.3495,15.5380,3.011920,0.1885553,0.95889850,359.8715,07/14.0/2012,2000,g  9.0,4.0
# From MPEC 2024-F34
97P/Metcalf-Brewington,e,17.9487,184.0802,230.1023,4.766382,0.0947154,0.46029334,72.6484,03/24.0/2024,2000,g  5.5,6.0
# From MPEC 2021-W31
98P/Takamizawa,e,10.5720,114.6329,157.7309,3.789820,0.1335907,0.56270541,156.9608,03/24.0/2024,2000,g  9.0,8.0
# From MPEC 2024-A43
99P/Kowal,e,4.3394,28.0935,174.6722,6.097135,0.0654659,0.22853004,46.7326,03/24.0/2024,2000,g  4.5,6.0
# From MPEC 2023-OA6
100P/Hartley,e,25.5673,37.6856,181.9658,3.430594,0.1551137,0.41166048,91.7061,03/24.0/2024,2000,g  9.0,8.0
# From MPEC 2024-EF7
101P/Chernykh,e,5.0492,116.1617,277.8832,5.813376,0.0703172,0.59624850,107.6922,03/24.0/2024,2000,g 10.0,4.8
# From MPC105241
101P-B/Chernykh,e,5.0499,278.5496,115.4978,5.828862,0.0700371,0.59645921,106.0182,03/24.0/2024,2000,g  9.0,4.0
# From MPEC 2022-C56
102P/Shoemaker,e,25.8710,339.4107,20.6628,3.818423,0.1320924,0.45663046,152.7717,03/24.0/2024,2000,g  6.5,8.0
# From MPEC 2024-F34
103P/Hartley,e,13.6107,219.7491,181.3004,3.474392,0.1521899,0.69372797,24.8820,03/24.0/2024,2000,g  8.5,8.0
# From MPEC 2023-G31
104P/Kowal,e,5.7031,207.2077,227.2575,3.208674,0.1714808,0.66586846,137.5400,03/24.0/2024,2000,g 16.0,4.0
# From MPEC 2024-F34
105P/SingerBrewster,e,9.1682,192.3974,46.3636,3.471404,0.1523865,0.40891324,313.5459,03/24.0/2024,2000,g 11.5,6.0
# From MPEC 2023-UR6
106P/Schuster,e,19.5405,48.8621,353.7684,3.767024,0.1348051,0.59390947,127.7865,03/24.0/2024,2000,g 14.0,4.8
# From MPEC 2015-M77
107P/Wilson-Harrington,e,2.7986,266.7500,95.4956,2.625242,0.2317128,0.63141094,133.7938,03/24.0/2024,2000,g  9.0,4.0
# From MPEC 2022-P82
108P/Ciffreo,e,11.4362,50.2977,354.4997,3.742499,0.1361324,0.55606847,126.0039,03/24.0/2024,2000,g  8.0,12.0
# From  105, 420
109P/Swift-Tuttle,e,113.4635,139.4444,153.2097,26.21214,0.0073443,0.96258293,83.8583,03/24.0/2024,2000,g  4.0,6.0
# From MPEC 2023-KD6
110P/Hartley,e,11.7074,287.4922,167.5002,3.603919,0.1440594,0.31900019,127.8195,03/24.0/2024,2000,g  1.0,12.0
# From MPC 75718
111P/Helin-Roman-Crockett,e,4.2259,89.8134,1.2080,4.152161,0.1164911,0.10711740,117.6704,03/24.0/2024,2000,g  5.0,8.0
# From MPEC 2021-S45
112P/Urata-Niijima,e,24.2097,31.8341,21.4990,3.523614,0.1490121,0.59084100,224.1587,03/24.0/2024,2000,g 14.0,6.0
# From MPEC 2023-VM5
113P/Spitaler,e,5.2878,306.6570,115.6329,3.694250,0.1388081,0.41994445,91.7926,03/24.0/2024,2000,g 13.5,4.0
# From MPEC 2023-A50
114P/Wiseman-Skiff,e,18.3006,271.0238,172.7653,3.541657,0.1478748,0.55592110,226.1817,03/24.0/2024,2000,g 11.5,6.0
# From MPEC 2023-J29
115P/Maury,e,11.6770,176.0140,120.9684,4.272132,0.1116187,0.51755863,148.9918,03/24.0/2024,2000,g 10.5,6.0
# From MPEC 2023-VM5
116P/Wild,e,3.6035,20.9709,173.2073,3.487648,0.1513231,0.37032011,93.2672,03/24.0/2024,2000,g  2.5,10.0
# From MPEC 2024-DC6
117P/Helin-Roman-Alu,e,8.7056,58.8137,223.5668,4.094464,0.1189621,0.25603306,74.0592,03/24.0/2024,2000,g  2.5,8.0
# From MPEC 2024-DC6
118P/Shoemaker-Levy,e,10.0903,142.0846,314.8836,3.348203,0.1608742,0.45370896,78.1115,03/24.0/2024,2000,g 12.0,4.0
# From MPEC 2024-F34
119P/Parker-Hartley,e,7.3923,104.5583,322.1742,3.807398,0.1326666,0.38837420,78.2348,03/24.0/2024,2000,g  3.5,8.0
# From MPEC 2022-CN4
120P/Mueller,e,8.4868,358.7233,36.7118,3.967920,0.1246980,0.37471137,131.0818,03/24.0/2024,2000,g 12.0,4.0
# From MPEC 2024-EF7
121P/Shoemaker-Holt,e,20.1629,94.1120,11.7471,4.585734,0.1003670,0.18648798,26.9665,03/24.0/2024,2000,g  6.5,8.0
# From MPC 75718
122P/de Vico,e,85.9345,79.7251,12.9922,17.62798,0.0133168,0.96246022,138.6896,03/24.0/2024,2000,g  7.5,5.2
# From MPEC 2021-F20
123P/West-Hartley,e,15.2800,45.9023,104.0202,3.881552,0.1288831,0.44429180,242.3720,03/24.0/2024,2000,g 12.2,4.0
# From MPEC 2023-T65
124P/Mrkos,e,31.4509,0.0678,185.1814,3.373161,0.1590921,0.48680958,229.2599,03/24.0/2024,2000,g 13.5,2.8
# From MPEC 2024-F34
125P/Spacewatch,e,9.9848,153.1503,87.1397,3.129335,0.1780434,0.51213502,2.9743,03/24.0/2024,2000,g 13.0,6.0
# From MPEC 2024-DC6
126P/IRAS,e,45.8707,357.8616,356.5800,5.633853,0.0737048,0.69641749,19.3636,03/24.0/2024,2000,g  6.0,8.0
# From MPEC 2024-AF0
127P/Holt-Olmstead,e,14.3005,13.6083,6.3068,3.452815,0.1536187,0.35927618,90.8800,03/24.0/2024,2000,g 11.0,6.0
# From MPC 89014
128P/Shoemaker-Holt,e,4.3703,214.3398,210.3584,4.485436,0.1037521,0.32236839,272.3983,03/24.0/2024,2000,g  8.5,4.0
# From MPEC 2024-F34
129P/Shoemaker-Levy,e,3.4423,184.8608,307.5532,4.291653,0.1108581,0.08557621,53.1068,03/24.0/2024,2000,g 11.0,4.0
# From MPEC 2024-F34
130P/McNaught-Hughes,e,6.0636,70.1787,246.1270,3.381294,0.1585184,0.46086151,356.5312,03/24.0/2024,2000,g 10.0,6.0
# From MPC102101
131P/Mueller,e,7.3606,214.1778,179.1201,3.677018,0.1397849,0.34491863,263.0853,03/24.0/2024,2000,g 11.0,4.0
# From MPEC 2024-BE0
132P/Helin-Roman-Alu,e,5.3813,173.9946,216.4543,3.890477,0.1284398,0.56457100,110.6836,03/24.0/2024,2000,g 11.0,6.0
# From MPC 94676
133P/Elst-Pizarro,e,1.3897,160.1017,131.9177,3.164498,0.1750841,0.15603930,351.7130,03/24.0/2024,2000,g 15.4,2.0
# From MPC 89012
134P/Kowal-Vavrova,e,4.3348,202.0112,18.7709,6.267450,0.0628156,0.58512544,226.8324,03/24.0/2024,2000,g 11.5,4.0
# From MPEC 2024-C04
135P/Shoemaker-Levy,e,6.0639,213.0190,22.3986,3.800519,0.1330270,0.29421580,95.3391,03/24.0/2024,2000,g  7.0,8.0
# From MPEC 2022-K19
136P/Mueller,e,9.4279,137.4966,225.1573,4.186268,0.1150704,0.29325825,327.1775,03/24.0/2024,2000,g 11.0,4.0
# From MPEC 2023-J29
137P/Shoemaker-Levy,e,4.8603,232.9255,141.2171,4.522375,0.1024836,0.57357371,197.3407,03/24.0/2024,2000,g 11.0,4.0
# From MPEC 2016-U66
138P/Shoemaker-Levy,e,10.0959,309.2903,95.6271,3.618913,0.1431650,0.53162118,255.4665,03/24.0/2024,2000,g 15.0,6.0
# From MPEC 2020-HN5
139P/Vaisala-Oterma,e,2.3373,242.1810,165.8453,4.516102,0.1026972,0.24833209,235.2286,03/24.0/2024,2000,g  9.5,4.0
# From MPEC 2015-E14
140P/Bowell-Skiff,e,3.7826,343.3358,172.3521,6.406201,0.0607859,0.69604486,192.4384,03/24.0/2024,2000,g 11.5,6.0
# From MPEC 2022-K19
141P/Machholz,e,13.9553,241.8099,153.6026,3.057530,0.1843520,0.73608130,219.9241,03/24.0/2024,2000,g 12.0,12.0
# From MPEC 2015-KD9
141P-A/Machholz,e,13.9434,153.5512,241.8749,3.057663,0.1843401,0.73607879,219.8772,03/24.0/2024,2000,g 12.0,12.0
# From MPC 24216
141P-B/Machholz,e,13.9873,153.6269,241.7642,3.056051,0.1844859,0.73583681,221.2379,03/24.0/2024,2000,g  9.0,4.0
# From MPC 37026
141P-D/Machholz,e,13.8354,153.2782,242.1226,3.066119,0.1835780,0.73703328,215.8250,03/24.0/2024,2000,g  9.0,4.0
# From MPEC 2015-R12
141P-E/Machholz,e,12.8152,246.1856,149.2667,3.012914,0.1884620,0.75023267,359.9529,09/19.0/1994,2000,g  9.0,4.0
# From MPEC 2015-R12
141P-F/Machholz,e,12.7898,246.1881,149.2374,3.010224,0.1887147,0.75000946,359.9630,09/19.0/1994,2000,g  9.0,4.0
# From MPEC 2015-R12
141P-G/Machholz,e,12.8259,246.3146,149.0784,3.005818,0.1891298,0.74964304,359.9802,09/19.0/1994,2000,g  9.0,4.0
# From MPC 95735
141P-H/Machholz,e,12.8431,246.0900,149.4500,3.008012,0.1889230,0.74682218,359.9270,08/24.0/2015,2000,g 18.5,4.0
# From MPEC 2022-SU8
141P-I/Machholz,e,13.9433,153.5055,241.8851,3.048143,0.1852043,0.73530426,221.0209,03/24.0/2024,2000,g 17.5,4.0
# From MPEC 2024-C04
142P/Ge-Wang,e,12.2496,175.9438,174.0716,5.002339,0.0880936,0.49660778,92.1968,03/24.0/2024,2000,g  8.5,6.0
# From MPEC 2023-XP6
143P/Kowal-Mrkos,e,5.0175,243.8552,320.6697,4.257023,0.1122135,0.42696564,242.7294,03/24.0/2024,2000,g 13.5,2.0
